[Satellite]
VERSION=1.1
NAME=POPACS 1
NICKNAME=POPACS 1
TLE1=1 39268U 13055D   18020.59025332  .00002871  00000-0  82492-4 0  9999
TLE2=2 39268  81.0051 140.9616 0641811 301.0428  52.9245 14.33008846221831
